{"type": "FeatureCollection", "features": [{"type": "Feature", "properties": {"norad_id": 26766, "name": "INTELSAT 10 (IS-10)", "group": "intelsat", "lat": -4.2007412042905, "lon": -90.23355717912413, "alt_km": 36094.65901624493, "timestamp": "2025-12-24T05:51:19.272790+00:00", "meta": {"OBJECT_NAME": "INTELSAT 10 (IS-10)", "OBJECT_ID": "2001-019A", "EPOCH": "2025-12-23T20:29:28.496256", "MEAN_MOTION": 0.9907274, "ECCENTRICITY": 0.00078795, "INCLINATION": 8.6541, "RA_OF_ASC_NODE": 61.0445, "ARG_OF_PERICENTER": 229.3993, "MEAN_ANOMALY": 200.4709, "EPHEMERIS_TYPE": 0, "CLASSIFICATION_TYPE": "U", "NORAD_CAT_ID": 26766, "ELEMENT_SET_NO": 999, "REV_AT_EPOCH": 4384, "BSTAR": 0, "MEAN_MOTION_DOT": -1.1e-07, "MEAN_MOTION_DDOT": 0}, "tle": {"line1": "1 26766U 01019A   25357.85380204 -.00000011  00000+0  00000+0 0  9991", "line2": "2 26766   8.6541  61.0445 0007879 229.3993 200.4709  0.99072740 43840"}}, "geometry": {"type": "Point", "coordinates": [-90.23355717912413, -4.2007412042905]}}, {"type": "Feature", "properties": {"norad_id": 26900, "name": "INTELSAT 902 (IS-902)", "group": "intelsat", "lat": 4.761512104317003, "lon": 130.49738556856303, "alt_km": 35799.72635230414, "timestamp": "2025-12-24T05:51:19.272812+00:00", "meta": {"OBJECT_NAME": "INTELSAT 902 (IS-902)", "OBJECT_ID": "2001-039A", "EPOCH": "2025-12-15T13:09:02.081664", "MEAN_MOTION": 1.0027087, "ECCENTRICITY": 0.00045028, "INCLINATION": 5.6536, "RA_OF_ASC_NODE": 74.0372, "ARG_OF_PERICENTER": 189.6359, "MEAN_ANOMALY": 327.9329, "EPHEMERIS_TYPE": 0, "CLASSIFICATION_TYPE": "U", "NORAD_CAT_ID": 26900, "ELEMENT_SET_NO": 999, "REV_AT_EPOCH": 8885, "BSTAR": 0, "MEAN_MOTION_DOT": -2.65e-06, "MEAN_MOTION_DDOT": 0}, "tle": {"line1": "1 26900U 01039A   25349.54794076 -.00000265  00000+0  00000+0 0  9997", "line2": "2 26900   5.6536  74.0372 0004502 189.6359 327.9329  1.00270870 88858"}}, "geometry": {"type": "Point", "coordinates": [130.49738556856303, 4.761512104317003]}}, {"type": "Feature", "properties": {"norad_id": 27380, "name": "INTELSAT 904 (IS-904)", "group": "intelsat", "lat": 6.358590909123339, "lon": 149.28181484090828, "alt_km": 35792.4534348008, "timestamp": "2025-12-24T05:51:19.272829+00:00", "meta": {"OBJECT_NAME": "INTELSAT 904 (IS-904)", "OBJECT_ID": "2002-007A", "EPOCH": "2025-12-23T11:16:19.539840", "MEAN_MOTION": 1.00273546, "ECCENTRICITY": 0.00018643, "INCLINATION": 6.4798, "RA_OF_ASC_NODE": 71.3095, "ARG_OF_PERICENTER": 244.0709, "MEAN_ANOMALY": 274.4665, "EPHEMERIS_TYPE": 0, "CLASSIFICATION_TYPE": "U", "NORAD_CAT_ID": 27380, "ELEMENT_SET_NO": 999, "REV_AT_EPOCH": 5000, "BSTAR": 0, "MEAN_MOTION_DOT": -2.07e-06, "MEAN_MOTION_DDOT": 0}, "tle": {"line1": "1 27380U 02007A   25357.46967060 -.00000207  00000+0  00000+0 0  9997", "line2": "2 27380   6.4798  71.3095 0001864 244.0709 274.4665  1.00273546 50003"}}, "geometry": {"type": "Point", "coordinates": [149.28181484090828, 6.358590909123339]}}, {"type": "Feature", "properties": {"norad_id": 27426, "name": "DIRECTV 5 (TEMPO 1)", "group": "intelsat", "lat": -0.5051638305669024, "lon": 70.76724823507138, "alt_km": 35798.25965920637, "timestamp": "2025-12-24T05:51:19.272842+00:00", "meta": {"OBJECT_NAME": "DIRECTV 5 (TEMPO 1)", "OBJECT_ID": "2002-023A", "EPOCH": "2025-12-23T16:01:57.619200", "MEAN_MOTION": 1.00271663, "ECCENTRICITY": 0.0003261, "INCLINATION": 4.4282, "RA_OF_ASC_NODE": 77.5248, "ARG_OF_PERICENTER": 202.2662, "MEAN_ANOMALY": 303.0349, "EPHEMERIS_TYPE": 0, "CLASSIFICATION_TYPE": "U", "NORAD_CAT_ID": 27426, "ELEMENT_SET_NO": 999, "REV_AT_EPOCH": 8636, "BSTAR": 0, "MEAN_MOTION_DOT": -3.8e-07, "MEAN_MOTION_DDOT": 0}, "tle": {"line1": "1 27426U 02023A   25357.66802800 -.00000038  00000+0  00000+0 0  9990", "line2": "2 27426   4.4282  77.5248 0003261 202.2662 303.0349  1.00271663 86369"}}, "geometry": {"type": "Point", "coordinates": [70.76724823507138, -0.5051638305669024]}}, {"type": "Feature", "properties": {"norad_id": 27438, "name": "INTELSAT 905 (IS-905)", "group": "intelsat", "lat": -2.976125495972644, "lon": 43.8278113139289, "alt_km": 35792.68734912986, "timestamp": "2025-12-24T05:51:19.272854+00:00", "meta": {"OBJECT_NAME": "INTELSAT 905 (IS-905)", "OBJECT_ID": "2002-027A", "EPOCH": "2025-12-23T05:41:27.377952", "MEAN_MOTION": 1.00273243, "ECCENTRICITY": 0.00027491, "INCLINATION": 6.3102, "RA_OF_ASC_NODE": 71.9349, "ARG_OF_PERICENTER": 206.5226, "MEAN_ANOMALY": 121.7385, "EPHEMERIS_TYPE": 0, "CLASSIFICATION_TYPE": "U", "NORAD_CAT_ID": 27438, "ELEMENT_SET_NO": 999, "REV_AT_EPOCH": 4959, "BSTAR": 0, "MEAN_MOTION_DOT": 1.12e-06, "MEAN_MOTION_DDOT": 0}, "tle": {"line1": "1 27438U 02027A   25357.23712243  .00000112  00000+0  00000+0 0  9993", "line2": "2 27438   6.3102  71.9349 0002749 206.5226 121.7385  1.00273243 49592"}}, "geometry": {"type": "Point", "coordinates": [43.8278113139289, -2.976125495972644]}}, {"type": "Feature", "properties": {"norad_id": 27445, "name": "GALAXY 3C (G-3C)", "group": "intelsat", "lat": 0.34118826765062765, "lon": 85.96970597605318, "alt_km": 35785.14307446758, "timestamp": "2025-12-24T05:51:19.272868+00:00", "meta": {"OBJECT_NAME": "GALAXY 3C (G-3C)", "OBJECT_ID": "2002-030A", "EPOCH": "2025-12-23T19:31:44.704704", "MEAN_MOTION": 1.00271484, "ECCENTRICITY": 0.00011099, "INCLINATION": 3.2897, "RA_OF_ASC_NODE": 80.3883, "ARG_OF_PERICENTER": 83.376, "MEAN_ANOMALY": 126.9143, "EPHEMERIS_TYPE": 0, "CLASSIFICATION_TYPE": "U", "NORAD_CAT_ID": 27445, "ELEMENT_SET_NO": 999, "REV_AT_EPOCH": 4473, "BSTAR": 0, "MEAN_MOTION_DOT": -1.33e-06, "MEAN_MOTION_DDOT": 0}, "tle": {"line1": "1 27445U 02030A   25357.81371186 -.00000133  00000+0  00000+0 0  9990", "line2": "2 27445   3.2897  80.3883 0001109  83.3760 126.9143  1.00271484 44732"}}, "geometry": {"type": "Point", "coordinates": [85.96970597605318, 0.34118826765062765]}}, {"type": "Feature", "properties": {"norad_id": 27513, "name": "INTELSAT 906 (IS-906)", "group": "intelsat", "lat": 0.9273912539514885, "lon": -114.99545390521152, "alt_km": 35762.93067673997, "timestamp": "2025-12-24T05:51:19.272879+00:00", "meta": {"OBJECT_NAME": "INTELSAT 906 (IS-906)", "OBJECT_ID": "2002-041A", "EPOCH": "2025-12-23T18:34:28.015104", "MEAN_MOTION": 1.00273398, "ECCENTRICITY": 0.00062905, "INCLINATION": 5.3577, "RA_OF_ASC_NODE": 75.1001, "ARG_OF_PERICENTER": 202.0184, "MEAN_ANOMALY": 158.2022, "EPHEMERIS_TYPE": 0, "CLASSIFICATION_TYPE": "U", "NORAD_CAT_ID": 27513, "ELEMENT_SET_NO": 999, "REV_AT_EPOCH": 8527, "BSTAR": 0, "MEAN_MOTION_DOT": 3.1e-07, "MEAN_MOTION_DDOT": 0}, "tle": {"line1": "1 27513U 02041A   25357.77393536  .00000031  00000+0  00000+0 0  9992", "line2": "2 27513   5.3577  75.1001 0006290 202.0184 158.2022  1.00273398 85270"}}, "geometry": {"type": "Point", "coordinates": [-114.99545390521152, 0.9273912539514885]}}, {"type": "Feature", "properties": {"norad_id": 27954, "name": "GALAXY 13 (HORIZONS-1)", "group": "intelsat", "lat": -0.7892561423755251, "lon": 30.842463799844317, "alt_km": 35791.45854927234, "timestamp": "2025-12-24T05:51:19.272891+00:00", "meta": {"OBJECT_NAME": "GALAXY 13 (HORIZONS-1)", "OBJECT_ID": "2003-044A", "EPOCH": "2025-12-23T17:33:18.870624", "MEAN_MOTION": 1.0027125, "ECCENTRICITY": 0.00023412, "INCLINATION": 0.9652, "RA_OF_ASC_NODE": 86.3258, "ARG_OF_PERICENTER": 182.915, "MEAN_ANOMALY": 296.5742, "EPHEMERIS_TYPE": 0, "CLASSIFICATION_TYPE": "U", "NORAD_CAT_ID": 27954, "ELEMENT_SET_NO": 999, "REV_AT_EPOCH": 4481, "BSTAR": 0, "MEAN_MOTION_DOT": 1.53e-06, "MEAN_MOTION_DDOT": 0}, "tle": {"line1": "1 27954U 03044A   25357.73146841  .00000153  00000+0  00000+0 0  9991", "line2": "2 27954   0.9652  86.3258 0002341 182.9150 296.5742  1.00271250 44819"}}, "geometry": {"type": "Point", "coordinates": [30.842463799844317, -0.7892561423755251]}}, {"type": "Feature", "properties": {"norad_id": 28358, "name": "INTELSAT 10-02", "group": "intelsat", "lat": 0.019042219472493686, "lon": 179.88044028817032, "alt_km": 35788.68029606444, "timestamp": "2025-12-24T05:51:19.272904+00:00", "meta": {"OBJECT_NAME": "INTELSAT 10-02", "OBJECT_ID": "2004-022A", "EPOCH": "2025-12-23T21:41:17.772288", "MEAN_MOTION": 1.00271585, "ECCENTRICITY": 0.00010515, "INCLINATION": 0.0155, "RA_OF_ASC_NODE": 49.0118, "ARG_OF_PERICENTER": 256.2351, "MEAN_ANOMALY": 111.8084, "EPHEMERIS_TYPE": 0, "CLASSIFICATION_TYPE": "U", "NORAD_CAT_ID": 28358, "ELEMENT_SET_NO": 999, "REV_AT_EPOCH": 7879, "BSTAR": 0, "MEAN_MOTION_DOT": 1e-07, "MEAN_MOTION_DDOT": 0}, "tle": {"line1": "1 28358U 04022A   25357.90367792  .00000010  00000+0  00000+0 0  9998", "line2": "2 28358   0.0155  49.0118 0001051 256.2351 111.8084  1.00271585 78796"}}, "geometry": {"type": "Point", "coordinates": [179.88044028817032, 0.019042219472493686]}}, {"type": "Feature", "properties": {"norad_id": 28626, "name": "XM-3 (RHYTHM)", "group": "intelsat", "lat": 0.057945641263960866, "lon": -119.57064597954776, "alt_km": 36164.77371239187, "timestamp": "2025-12-24T05:51:19.272916+00:00", "meta": {"OBJECT_NAME": "XM-3 (RHYTHM)", "OBJECT_ID": "2005-008A", "EPOCH": "2025-12-23T21:59:01.074624", "MEAN_MOTION": 0.98949978, "ECCENTRICITY": 0.00021108, "INCLINATION": 0.2018, "RA_OF_ASC_NODE": 82.1578, "ARG_OF_PERICENTER": 275.2697, "MEAN_ANOMALY": 126.1912, "EPHEMERIS_TYPE": 0, "CLASSIFICATION_TYPE": "U", "NORAD_CAT_ID": 28626, "ELEMENT_SET_NO": 999, "REV_AT_EPOCH": 4086, "BSTAR": 0, "MEAN_MOTION_DOT": 9.9e-07, "MEAN_MOTION_DDOT": 0}, "tle": {"line1": "1 28626U 05008A   25357.91598466  .00000099  00000+0  00000+0 0  9993", "line2": "2 28626   0.2018  82.1578 0002110 275.2697 126.1912  0.98949978 40863"}}, "geometry": {"type": "Point", "coordinates": [-119.57064597954776, 0.057945641263960866]}}]}